$$SOE
2461302.500000000, A.D. 2026-Sep-19 00:00:00.0000, 7.963891610859744E+07, 1.590334215624348E+08, 6.356335903508753E+07,
2461309.500000000, A.D. 2026-Sep-26 00:00:00.0000, 6.585258976353443E+07, 1.637936506196793E+08, 5.958945620018210E+07,
2461316.500000000, A.D. 2026-Oct-03 00:00:00.0000, 5.157284690613894E+07, 1.673246074916539E+08, 5.516863156183264E+07,
2461323.500000000, A.D. 2026-Oct-10 00:00:00.0000, 3.688935282473644E+07, 1.695427076848379E+08, 5.031527594811601E+07,
2461330.500000000, A.D. 2026-Oct-17 00:00:00.0000, 2.190317871189602E+07, 1.703650858174651E+08, 4.504808165361974E+07,
2461337.500000000, A.D. 2026-Oct-24 00:00:00.0000, 6.728284853927490E+06, 1.697108197655191E+08, 3.939084795132463E+07,
2461344.500000000, A.D. 2026-Oct-31 00:00:00.0000, -8.506943097586986E+06, 1.675026312284906E+08, 3.337340958685694E+07,
2461351.500000000, A.D. 2026-Nov-07 00:00:00.0000, -2.365818457075005E+07, 1.636691797259738E+08, 2.703268456318464E+07,
2461358.500000000, A.D. 2026-Nov-14 00:00:00.0000, -3.856382840072452E+07, 1.581480791745777E+08, 2.041382291903835E+07,
2461365.500000000, A.D. 2026-Nov-21 00:00:00.0000, -5.304396357405628E+07, 1.508897656571260E+08, 1.357141529182934E+07,
2461372.500000000, A.D. 2026-Nov-28 00:00:00.0000, -6.689998790847405E+07, 1.418623185799114E+08, 6.570685666997455E+06,
2461379.500000000, A.D. 2026-Dec-05 00:00:00.0000, -7.991519416230939E+07, 1.310572794890577E+08, -5.114541143505797E+05,
2461386.500000000, A.D. 2026-Dec-12 00:00:00.0000, -9.185678950326340E+07, 1.184964012210298E+08, -7.585668550316699E+06,
2461393.500000000, A.D. 2026-Dec-19 00:00:00.0000, -1.024798734589218E+08, 1.042390669239719E+08, -1.455002783415210E+07,
2461400.500000000, A.D. 2026-Dec-26 00:00:00.0000, -1.115338966781466E+08, 8.838984278813571E+07, -2.129070912612773E+07,
2461407.500000000, A.D. 2027-Jan-02 00:00:00.0000, -1.187719922343131E+08, 7.110528367606658E+07, -2.768390612505105E+07,
2461414.500000000, A.D. 2027-Jan-09 00:00:00.0000, -1.239632485513359E+08, 5.259875248144485E+07, -3.359924395696969E+07,
2461421.500000000, A.D. 2027-Jan-16 00:00:00.0000, -1.269074484265274E+08, 3.314175826577170E+07, -3.890484898636834E+07,
2461428.500000000, A.D. 2027-Jan-23 00:00:00.0000, -1.274510720036574E+08, 1.306033107033288E+07, -4.347395469023954E+07,
2461435.500000000, A.D. 2027-Jan-30 00:00:00.0000, -1.255025988816187E+08, -7.274601027868548E+06, -4.719255560276990E+07,
2461442.500000000, A.D. 2027-Feb-06 00:00:00.0000, -1.210446237641177E+08, -2.746291784003109E+07, -4.996722768800151E+07,
2461449.500000000, A.D. 2027-Feb-13 00:00:00.0000, -1.141403398216799E+08, -4.709587440020750E+07, -5.173196128925705E+07,
2461456.500000000, A.D. 2027-Feb-20 00:00:00.0000, -1.049327180013279E+08, -6.577902833448920E+07, -5.245285317380580E+07,
2461463.500000000, A.D. 2027-Feb-27 00:00:00.0000, -9.363609095372003E+07, -8.315426138654965E+07, -5.212984075733332E+07,
2461470.500000000, A.D. 2027-Mar-06 00:00:00.0000, -8.052141694829878E+07, -9.891772264641219E+07, -5.079525289776891E+07,
2461477.500000000, A.D. 2027-Mar-13 00:00:00.0000, -6.589770754867319E+07, -1.128314799124580E+08, -4.850959749246787E+07,
2461484.500000000, A.D. 2027-Mar-20 00:00:00.0000, -5.009255563360964E+07, -1.247281154321443E+08, -4.535548600380349E+07,
2461491.500000000, A.D. 2027-Mar-27 00:00:00.0000, -3.343436020146784E+07, -1.345089065140893E+08, -4.143077759483732E+07,
2461498.500000000, A.D. 2027-Apr-03 00:00:00.0000, -1.623798091350726E+07, -1.421371789044793E+08, -3.684191812884732E+07,
2461505.500000000, A.D. 2027-Apr-10 00:00:00.0000, 1.205447577826853E+06, -1.476287681947486E+08, -3.169816100257134E+07,
2461512.500000000, A.D. 2027-Apr-17 00:00:00.0000, 1.863464533394795E+07, -1.510413735840287E+08, -2.610702131366587E+07,
2461519.500000000, A.D. 2027-Apr-24 00:00:00.0000, 3.582088781897242E+07, -1.524641568443849E+08, -2.017103031231705E+07,
2461526.500000000, A.D. 2027-May-01 00:00:00.0000, 5.256812268360668E+07, -1.520084356340337E+08, -1.398566765058726E+07,
2461533.500000000, A.D. 2027-May-08 00:00:00.0000, 6.871134374491893E+07, -1.497998796980826E+08, -7.638254557991587E+06,
2461540.500000000, A.D. 2027-May-15 00:00:00.0000, 8.411393416021396E+07, -1.459722993780141E+08, -1.207567949276179E+06,
2461547.500000000, A.D. 2027-May-22 00:00:00.0000, 9.866451934807040E+07, -1.406629235357983E+08, 5.236044443352088E+06,
2461554.500000000, A.D. 2027-May-29 00:00:00.0000, 1.122737088614921E+08, -1.340089651687749E+08, 1.163022825177520E+07,
2461561.500000000, A.D. 2027-Jun-05 00:00:00.0000, 1.248709660169865E+08, -1.261452373679720E+08, 1.792000354430915E+07,
2461568.500000000, A.D. 2027-Jun-12 00:00:00.0000, 1.364017377670089E+08, -1.172025931815700E+08, 2.405706106166447E+07,
2461575.500000000, A.D. 2027-Jun-19 00:00:00.0000, 1.468249072779827E+08, -1.073069918915194E+08, 2.999903957465905E+07,
2461582.500000000, A.D. 2027-Jun-26 00:00:00.0000, 1.561105860117429E+08, -9.657902785440965E+07, 3.570882603801884E+07,
2461589.500000000, A.D. 2027-Jul-03 00:00:00.0000, 1.642382343593985E+08, -8.513379170668417E+07, 4.115390283871083E+07,
2461596.500000000, A.D. 2027-Jul-10 00:00:00.0000, 1.711950850262593E+08, -7.308096381424657E+07, 4.630575454028112E+07,
2461603.500000000, A.D. 2027-Jul-17 00:00:00.0000, 1.769748369563750E+08, -6.052506492700238E+07, 5.113933874901216E+07,
2461610.500000000, A.D. 2027-Jul-24 00:00:00.0000, 1.815765864009655E+08, -4.756580898593817E+07, 5.563262088792691E+07,
2461617.500000000, A.D. 2027-Jul-31 00:00:00.0000, 1.850039636331017E+08, -3.429851813496625E+07, 5.976616988010252E+07,
2461624.500000000, A.D. 2027-Aug-07 00:00:00.0000, 1.872644464289609E+08, -2.081457072677249E+07, 6.352281053016263E+07,
2461631.500000000, A.D. 2027-Aug-14 00:00:00.0000, 1.883688231654214E+08, -7.201863238976348E+06, 6.688732800907097E+07,
2461638.500000000, A.D. 2027-Aug-21 00:00:00.0000, 1.883307851836116E+08, 6.454723567163318E+06, 6.984621933578600E+07,
2461645.500000000, A.D. 2027-Aug-28 00:00:00.0000, 1.871666346569118E+08, 2.007286403611734E+07, 7.238748724367893E+07,
2461652.500000000, A.D. 2027-Sep-04 00:00:00.0000, 1.848950931229197E+08, 3.357234053685884E+07, 7.450047296680374E+07,
2461659.500000000, A.D. 2027-Sep-11 00:00:00.0000, 1.815371988195081E+08, 4.687461265269899E+07, 7.617572495987205E+07,
2461666.500000000, A.D. 2027-Sep-18 00:00:00.0000, 1.771162853621037E+08, 5.990240413604064E+07, 7.740490119477126E+07,
2461673.500000000, A.D. 2027-Sep-25 00:00:00.0000, 1.716580369844992E+08, 7.257930908171372E+07, 7.818070352083644E+07,
2461680.500000000, A.D. 2027-Oct-02 00:00:00.0000, 1.651906177670802E+08, 8.482941880157520E+07, 7.849684343768676E+07,
2461687.500000000, A.D. 2027-Oct-09 00:00:00.0000, 1.577448743876391E+08, 9.657697125658379E+07, 7.834803950640813E+07,
2461694.500000000, A.D. 2027-Oct-16 00:00:00.0000, 1.493546139788449E+08, 1.077460257314929E+08, 7.773004753968187E+07,
2461701.500000000, A.D. 2027-Oct-23 00:00:00.0000, 1.400569607523931E+08, 1.182601668736490E+08, 7.663972568793628E+07,
2461708.500000000, A.D. 2027-Oct-30 00:00:00.0000, 1.298927969267208E+08, 1.280422447864395E+08, 7.507513764655140E+07,
2461715.500000000, A.D. 2027-Nov-06 00:00:00.0000, 1.189072935171483E+08, 1.370141609989278E+08, 7.303569849661162E+07,
2461722.500000000, A.D. 2027-Nov-13 00:00:00.0000, 1.071505369817776E+08, 1.450967104801041E+08, 7.052236875017396E+07,
2461729.500000000, A.D. 2027-Nov-20 00:00:00.0000, 9.467826363223758E+07, 1.522094943745500E+08, 6.753790315349954E+07,
2461736.500000000, A.D. 2027-Nov-27 00:00:00.0000, 8.155271275922009E+07, 1.582709290929569E+08, 6.408716267082506E+07,
2461743.500000000, A.D. 2027-Dec-04 00:00:00.0000, 6.784360498167701E+07, 1.631983828313436E+08, 6.017749956697359E+07,
2461750.500000000, A.D. 2027-Dec-11 00:00:00.0000, 5.362925145900667E+07, 1.669084781360695E+08, 5.581922643370341E+07,
2461757.500000000, A.D. 2027-Dec-18 00:00:00.0000, 3.899779561351223E+07, 1.693176113310876E+08, 5.102618073896490E+07,
2461764.500000000, A.D. 2027-Dec-25 00:00:00.0000, 2.404858034684657E+07, 1.703427538337836E+08, 4.581639640970983E+07,
2461771.500000000, A.D. 2028-Jan-01 00:00:00.0000, 8.893619678272543E+06, 1.699026163822434E+08, 4.021289234783657E+07,
$$EOE